start=new Date('2021-12-25T00:00:00.000Z').valueOf();
sats=[{"MEAN_MOTION_DOT":"0.00000940","SITE":"AFETR","ECCENTRICITY":"0.00023600","TIME_SYSTEM":"UTC","OBJECT_ID":"2021-036AQ","INCLINATION":"53.0536","REV_AT_EPOCH":"3665","ELEMENT_SET_NO":"999","EPHEMERIS_TYPE":"0","BSTAR":"0.00008200400000","PERIOD":"95.592","TLE_LINE1":"1 48314U 21036AQ  21358.68142678  .00000940  00000-0  82004-4 0  9994","REF_FRAME":"TEME","RA_OF_ASC_NODE":"147.0371","MEAN_MOTION":"15.06404865","OBJECT_TYPE":"PAYLOAD","PERIAPSIS":"545.564","NORAD_CAT_ID":"48314","LAUNCH_DATE":"2021-04-29","OBJECT_NAME":"STARLINK-2549","SEMIMAJOR_AXIS":"6925.334","GP_ID":"192397319","ARG_OF_PERICENTER":"95.6012","APOAPSIS":"548.833","MEAN_ANOMALY":"264.5246","MEAN_MOTION_DDOT":"0.0000000000000","CLASSIFICATION_TYPE":"U","RCS_SIZE":"LARGE","CENTER_NAME":"EARTH","EPOCH":"2021-12-24T16:21:15.273792","TLE_LINE2":"2 48314  53.0536 147.0371 0002360  95.6012 264.5246 15.06404865 36659","COUNTRY_CODE":"US","FILE":"3250462","MEAN_ELEMENT_THEORY":"SGP4","DECAY_DATE":null},{"APOAPSIS":"548.806","MEAN_ANOMALY":"261.9072","ARG_OF_PERICENTER":"98.2178","MEAN_MOTION_DDOT":"0.0000000000000","CLASSIFICATION_TYPE":"U","NORAD_CAT_ID":"48315","PERIAPSIS":"545.622","OBJECT_NAME":"STARLINK-2506","LAUNCH_DATE":"2021-04-29","SEMIMAJOR_AXIS":"6925.349","GP_ID":"192397571","FILE":"3250462","MEAN_ELEMENT_THEORY":"SGP4","DECAY_DATE":null,"CENTER_NAME":"EARTH","RCS_SIZE":"LARGE","EPOCH":"2021-12-24T17:51:30.191616","TLE_LINE2":"2 48315  53.0550 146.7553 0002299  98.2178 261.9072 15.06399956 36660","COUNTRY_CODE":"US","TIME_SYSTEM":"UTC","OBJECT_ID":"2021-036AR","SITE":"AFETR","ECCENTRICITY":"0.00022990","ELEMENT_SET_NO":"999","REV_AT_EPOCH":"3666","INCLINATION":"53.0550","EPHEMERIS_TYPE":"0","BSTAR":"0.00019220000000","MEAN_MOTION_DOT":"0.00002582","MEAN_MOTION":"15.06399956","OBJECT_TYPE":"PAYLOAD","PERIOD":"95.592","TLE_LINE1":"1 48315U 21036AR  21358.74409944  .00002582  00000-0  19220-3 0  9997","REF_FRAME":"TEME","RA_OF_ASC_NODE":"146.7553"},{"OBJECT_TYPE":"PAYLOAD","MEAN_MOTION":"15.06403023","REF_FRAME":"TEME","RA_OF_ASC_NODE":"146.4764","PERIOD":"95.592","TLE_LINE1":"1 48316U 21036AS  21358.80674706  .00002458  00000-0  18385-3 0  9998","REV_AT_EPOCH":"3667","INCLINATION":"53.0547","ELEMENT_SET_NO":"999","EPHEMERIS_TYPE":"0","BSTAR":"0.00018385000000","SITE":"AFETR","ECCENTRICITY":"0.00020750","OBJECT_ID":"2021-036AS","TIME_SYSTEM":"UTC","MEAN_MOTION_DOT":"0.00002458","DECAY_DATE":null,"FILE":"3250462","MEAN_ELEMENT_THEORY":"SGP4","COUNTRY_CODE":"US","TLE_LINE2":"2 48316  53.0547 146.4764 0002075  95.8892 264.2333 15.06403023 36674","EPOCH":"2021-12-24T19:21:42.945984","RCS_SIZE":"LARGE","CENTER_NAME":"EARTH","MEAN_MOTION_DDOT":"0.0000000000000","CLASSIFICATION_TYPE":"U","ARG_OF_PERICENTER":"95.8892","MEAN_ANOMALY":"264.2333","APOAPSIS":"548.641","SEMIMAJOR_AXIS":"6925.339","GP_ID":"192397822","PERIAPSIS":"545.767","NORAD_CAT_ID":"48316","LAUNCH_DATE":"2021-04-29","OBJECT_NAME":"STARLINK-2507"},{"OBJECT_TYPE":"PAYLOAD","MEAN_MOTION":"15.06402706","REF_FRAME":"TEME","RA_OF_ASC_NODE":"146.4880","PERIOD":"95.592","TLE_LINE1":"1 48317U 21036AT  21358.80306541  .00001117  00000-0  93915-4 0  9992","INCLINATION":"53.0543","REV_AT_EPOCH":"3667","ELEMENT_SET_NO":"999","BSTAR":"0.00009391500000","EPHEMERIS_TYPE":"0","SITE":"AFETR","ECCENTRICITY":"0.00023320","TIME_SYSTEM":"UTC","OBJECT_ID":"2021-036AT","MEAN_MOTION_DOT":"0.00001117","DECAY_DATE":null,"FILE":"3250462","MEAN_ELEMENT_THEORY":"SGP4","TLE_LINE2":"2 48317  53.0543 146.4880 0002332  93.8139 266.3116 15.06402706 36677","COUNTRY_CODE":"US","EPOCH":"2021-12-24T19:16:24.851424","RCS_SIZE":"LARGE","CENTER_NAME":"EARTH","MEAN_MOTION_DDOT":"0.0000000000000","CLASSIFICATION_TYPE":"U","ARG_OF_PERICENTER":"93.8139","APOAPSIS":"548.820","MEAN_ANOMALY":"266.3116","SEMIMAJOR_AXIS":"6925.340","GP_ID":"192396570","NORAD_CAT_ID":"48317","PERIAPSIS":"545.590","LAUNCH_DATE":"2021-04-29","OBJECT_NAME":"STARLINK-2513"},{"RA_OF_ASC_NODE":"156.8061","REF_FRAME":"TEME","TLE_LINE1":"1 48318U 21036AU  21358.72842854  .00001714  00000-0  13392-3 0  9999","PERIOD":"95.592","OBJECT_TYPE":"PAYLOAD","MEAN_MOTION":"15.06405359","MEAN_MOTION_DOT":"0.00001714","EPHEMERIS_TYPE":"0","BSTAR":"0.00013392000000","ELEMENT_SET_NO":"999","REV_AT_EPOCH":"3652","INCLINATION":"53.0539","TIME_SYSTEM":"UTC","OBJECT_ID":"2021-036AU","SITE":"AFETR","ECCENTRICITY":"0.00025120","COUNTRY_CODE":"US","TLE_LINE2":"2 48318  53.0539 156.8061 0002512  88.1102 272.0175 15.06405359 36526","EPOCH":"2021-12-24T17:28:56.225856","CENTER_NAME":"EARTH","RCS_SIZE":"LARGE","DECAY_DATE":null,"MEAN_ELEMENT_THEORY":"SGP4","FILE":"3250462","GP_ID":"192396820","SEMIMAJOR_AXIS":"6925.332","OBJECT_NAME":"STARLINK-2509","LAUNCH_DATE":"2021-04-29","PERIAPSIS":"545.457","NORAD_CAT_ID":"48318","CLASSIFICATION_TYPE":"U","MEAN_MOTION_DDOT":"0.0000000000000","APOAPSIS":"548.937","MEAN_ANOMALY":"272.0175","ARG_OF_PERICENTER":"88.1102"},{"RA_OF_ASC_NODE":"156.2295","REF_FRAME":"TEME","TLE_LINE1":"1 48319U 21036AV  21358.85743243  .00001718  00000-0  13425-3 0  9997","PERIOD":"95.592","OBJECT_TYPE":"PAYLOAD","MEAN_MOTION":"15.06399141","MEAN_MOTION_DOT":"0.00001718","EPHEMERIS_TYPE":"0","BSTAR":"0.00013425000000","ELEMENT_SET_NO":"999","REV_AT_EPOCH":"3654","INCLINATION":"53.0528","TIME_SYSTEM":"UTC","OBJECT_ID":"2021-036AV","ECCENTRICITY":"0.00025500","SITE":"AFETR","TLE_LINE2":"2 48319  53.0528 156.2295 0002550  92.2995 267.8286 15.06399141 36544","COUNTRY_CODE":"US","EPOCH":"2021-12-24T20:34:42.161952","CENTER_NAME":"EARTH","RCS_SIZE":"LARGE","DECAY_DATE":null,"MEAN_ELEMENT_THEORY":"SGP4","FILE":"3250462","GP_ID":"192398071","SEMIMAJOR_AXIS":"6925.351","OBJECT_NAME":"STARLINK-2512","LAUNCH_DATE":"2021-04-29","NORAD_CAT_ID":"48319","PERIAPSIS":"545.450","CLASSIFICATION_TYPE":"U","MEAN_MOTION_DDOT":"0.0000000000000","APOAPSIS":"548.982","MEAN_ANOMALY":"267.8286","ARG_OF_PERICENTER":"92.2995"},{"ARG_OF_PERICENTER":"89.5222","APOAPSIS":"548.893","MEAN_ANOMALY":"270.6044","CLASSIFICATION_TYPE":"U","MEAN_MOTION_DDOT":"0.0000000000000","LAUNCH_DATE":"2021-04-29","OBJECT_NAME":"STARLINK-2029","NORAD_CAT_ID":"48320","PERIAPSIS":"545.539","GP_ID":"192398322","SEMIMAJOR_AXIS":"6925.351","MEAN_ELEMENT_THEORY":"SGP4","FILE":"3250462","DECAY_DATE":null,"RCS_SIZE":"LARGE","CENTER_NAME":"EARTH","EPOCH":"2021-12-24T20:29:23.796960","TLE_LINE2":"2 48320  53.0556 156.2408 0002421  89.5222 270.6044 15.06399214 36547","COUNTRY_CODE":"US","SITE":"AFETR","ECCENTRICITY":"0.00024210","OBJECT_ID":"2021-036AW","TIME_SYSTEM":"UTC","BSTAR":"0.00003719700000","EPHEMERIS_TYPE":"0","REV_AT_EPOCH":"3654","INCLINATION":"53.0556","ELEMENT_SET_NO":"999","MEAN_MOTION_DOT":"0.00000272","MEAN_MOTION":"15.06399214","OBJECT_TYPE":"PAYLOAD","TLE_LINE1":"1 48320U 21036AW  21358.85374765  .00000272  00000-0  37197-4 0  9995","PERIOD":"95.592","RA_OF_ASC_NODE":"156.2408","REF_FRAME":"TEME"},{"OBJECT_TYPE":"PAYLOAD","MEAN_MOTION":"15.06404080","REF_FRAME":"TEME","RA_OF_ASC_NODE":"156.2599","PERIOD":"95.592","TLE_LINE1":"1 48321U 21036AX  21358.85005777 -.00000171  00000-0  74364-5 0  9997","ELEMENT_SET_NO":"999","REV_AT_EPOCH":"3654","INCLINATION":"53.0545","EPHEMERIS_TYPE":"0","BSTAR":"0.00000743640000","OBJECT_ID":"2021-036AX","TIME_SYSTEM":"UTC","ECCENTRICITY":"0.00025660","SITE":"AFETR","MEAN_MOTION_DOT":"-0.00000171","DECAY_DATE":null,"FILE":"3250462","MEAN_ELEMENT_THEORY":"SGP4","COUNTRY_CODE":"US","TLE_LINE2":"2 48321  53.0545 156.2599 0002566  92.5458 267.5825 15.06404080 36542","EPOCH":"2021-12-24T20:24:04.991328","CENTER_NAME":"EARTH","RCS_SIZE":"LARGE","MEAN_MOTION_DDOT":"0.0000000000000","CLASSIFICATION_TYPE":"U","APOAPSIS":"548.978","MEAN_ANOMALY":"267.5825","ARG_OF_PERICENTER":"92.5458","SEMIMAJOR_AXIS":"6925.336","GP_ID":"192397070","NORAD_CAT_ID":"48321","PERIAPSIS":"545.424","OBJECT_NAME":"STARLINK-2457","LAUNCH_DATE":"2021-04-29"},{"ECCENTRICITY":"0.00022740","SITE":"AFETR","OBJECT_ID":"2021-036AY","TIME_SYSTEM":"UTC","EPHEMERIS_TYPE":"0","BSTAR":"0.00002738600000","INCLINATION":"53.0542","REV_AT_EPOCH":"3655","ELEMENT_SET_NO":"999","MEAN_MOTION_DOT":"0.00000126","MEAN_MOTION":"15.06406707","OBJECT_TYPE":"PAYLOAD","TLE_LINE1":"1 48322U 21036AY  21358.91272242  .00000126  00000-0  27386-4 0  9998","PERIOD":"95.592","RA_OF_ASC_NODE":"155.9756","REF_FRAME":"TEME","ARG_OF_PERICENTER":"94.0908","MEAN_ANOMALY":"266.0341","APOAPSIS":"548.768","CLASSIFICATION_TYPE":"U","MEAN_MOTION_DDOT":"0.0000000000000","LAUNCH_DATE":"2021-04-29","OBJECT_NAME":"STARLINK-2477","NORAD_CAT_ID":"48322","PERIAPSIS":"545.618","GP_ID":"192397320","SEMIMAJOR_AXIS":"6925.328","MEAN_ELEMENT_THEORY":"SGP4","FILE":"3250462","DECAY_DATE":null,"RCS_SIZE":"LARGE","CENTER_NAME":"EARTH","COUNTRY_CODE":"US","TLE_LINE2":"2 48322  53.0542 155.9756 0002274  94.0908 266.0341 15.06406707 36550","EPOCH":"2021-12-24T21:54:19.217088"},{"RCS_SIZE":"LARGE","CENTER_NAME":"EARTH","COUNTRY_CODE":"US","TLE_LINE2":"2 48323  53.0554 156.6041 0002188  94.8731 265.2507 15.06394715 36533","EPOCH":"2021-12-24T18:37:56.138880","FILE":"3250462","MEAN_ELEMENT_THEORY":"SGP4","DECAY_DATE":null,"PERIAPSIS":"545.714","NORAD_CAT_ID":"48323","LAUNCH_DATE":"2021-04-29","OBJECT_NAME":"STARLINK-2515","SEMIMAJOR_AXIS":"6925.365","GP_ID":"192397572","ARG_OF_PERICENTER":"94.8731","MEAN_ANOMALY":"265.2507","APOAPSIS":"548.745","MEAN_MOTION_DDOT":"0.0000000000000","CLASSIFICATION_TYPE":"U","PERIOD":"95.592","TLE_LINE1":"1 48323U 21036AZ  21358.77634420 -.00000389  00000-0 -72207-5 0  9999","REF_FRAME":"TEME","RA_OF_ASC_NODE":"156.6041","MEAN_MOTION":"15.06394715","OBJECT_TYPE":"PAYLOAD","MEAN_MOTION_DOT":"-0.00000389","ECCENTRICITY":"0.00021880","SITE":"AFETR","OBJECT_ID":"2021-036AZ","TIME_SYSTEM":"UTC","INCLINATION":"53.0554","REV_AT_EPOCH":"3653","ELEMENT_SET_NO":"999","EPHEMERIS_TYPE":"0","BSTAR":"-0.00000722070000"}];
